#dP2023  8 18 18  0  0.00000000      96 __u+U ITR00 EXT  IAC
## 2275 496800.00000000   900.00000000 60174 0.7500000000000
+  119   C06C07C08C09C10C11C12C13C14C16C19C20C21C22C23C24C25
+        C26C27C28C29C30C32C33C34C35C36C37C38C39C40C41C42C43
+        C44C45C46E02E03E04E05E07E08E09E10E11E12E13E14E15E18
+        E19E21E24E25E26E27E30E31E33E34E36G01G02G03G04G05G06
+        G07G08G09G10G11G12G13G14G15G16G17G18G19G20G21G22G23
+        G24G25G26G27G28G29G30G31G32J02J03J04R01R02R03R04R05
+        R07R08R09R11R12R13R14R15R16R17R18R19R20R21R22R24R25
++        11 10 10 11 10  7  8 10  8 11  8 10  8 10  9  8  8
++         9  8  8 10  9  9  8  8  9  8  8  8 11 10  9  8  9
++         7 10  9  7  7  7  8  7  8  7  7  7  7  8  8  9  8
++         9  8  7  7  8  8  8  8  7  7  8  7  8  7  8  8  6
++         8  8  8  7  7  6  9  9  7  7  8  7  8  7  7  8  7
++         7  7  8  8  7  7  7  7  7 10  9 10  8  7  7  7  9
++         8  8  9  7  9  8  8  9  8  8  9 10  7  7 10  8  8
%c M  cc GPS ccc cccc cccc cccc cccc ccccc ccccc ccccc ccccc
%c cc cc ccc ccc cccc cccc cccc cccc ccccc ccccc ccccc ccccc
%f  0.0000000  0.000000000  0.00000000000  0.000000000000000
%f  0.0000000  0.000000000  0.00000000000  0.000000000000000
%i    0    0    0    0      0      0      0      0         0
%i    0    0    0    0      0      0      0      0         0
/* IAC                                ULTRA-RAPID PREDICTION
/* S/V CLOCKS ARE ALIGNED TO GNSS TIME                      
/* G:C1WC2W R:C1PC2P E:C1XC5X C:C2IC6I J:C1CC2S             
/* PCV:IGS20_2247 OL/AL:FES2004  NONE     YN ORB:CoN CLK:CoN
*  2023 08 18 19  0  0.00000000
PC06 -10839.425018  40330.841415  -4597.660635    918.949120
PC07  -4645.514332  28457.977444  30886.400851     49.773700
PC08 -19087.984034  24704.130687 -28465.241321    384.337178
PC09  -5824.894525  41181.817609   5079.778753    276.291036
PC10   3034.425930  31079.672071  28867.777882   -149.714218
PC11  -6451.836543 -25912.550343   8116.531849    786.065888
PC12   5331.543562 -25437.602078 -10100.953740    881.782356
PC13 -11669.166952  25755.189759 -31240.322540    336.577818
PC14 -14745.834893 -18351.741599  14946.145103    250.243646
PC16 -12168.058684  39501.853835  -7170.369214    -41.177683
PC19  22119.882803  15647.783675  -6715.696878   -963.062251
PC20   6976.966132  18311.961461 -19877.259911    351.707930
PC21  13775.826818 -10047.861078  22102.630823   -951.518967
PC22  25356.809662   3893.605045  11006.993969   -345.737560
PC23 -24011.654077   4655.448161 -13427.534727   -900.706465
PC24   6284.532078 -20204.789199 -18186.282586    297.937511
PC25 -13537.976895 -10009.460655 -22263.051400    192.220985
PC26  20445.945991 -18479.609103  -4277.353408   -165.086311
PC27 -10284.539709  19905.601037  16612.201951    186.331265
PC28 -15846.456456   1989.779938  22887.125074    139.406191
PC29  12933.611203  19273.372021 -15502.806238    162.648498
PC30   1738.568438  27792.845165   1680.805746     -3.659306
PC32 -13769.976547  10108.100341 -22057.184487   -531.659292
PC33 -22118.738613 -15562.549657   6836.856812   -940.758867
PC34  -2626.654710 -27787.814822   -346.457459    240.021475
PC35  15879.155384  -2314.876151 -22844.293997    565.060930
PC36  12570.162853  10948.415033  22408.018582   -269.867074
PC37 -21379.747190  17631.988325   3411.160044   -809.736813
PC38 -25347.936985  26071.819422 -21462.158544     99.021632
PC39 -13643.297152  37279.126896 -13796.392437     -4.379977
PC40  -8365.633444  22775.947476  34533.824561    -33.359453
PC41 -25537.039869  -4335.655686 -10324.827801   -886.984584
PC42  -5359.678444 -18100.246724  20578.850727   -573.774116
PC43 -12598.829174 -20026.033369  14798.040168     35.841098
PC44   9753.301698 -20145.906451 -16695.618653    204.124770
PC45  24108.553130  -5099.012135  13081.916858    -15.498467
PC46  -5070.878600  19835.393060  18984.307126    -77.537993
PE02  28082.713645  -5829.843824  -7289.032371     56.415656
PE03  17017.556870  -4288.412617  23833.620086    -47.238081
PE04  -3092.304221  21541.458603 -20061.815211   -192.294329
PE05  21103.660368  15576.372711  13724.625531     10.212564
PE07 -12590.273950 -26359.496343   4742.047774    -68.332199
PE08   3336.739120 -21196.471720  20381.893276   -132.365890
PE09  12555.400794  26363.390805  -4903.262684   -125.041198
PE10  -6422.709084  26887.787381 -10611.239436   -557.082248
PE11   1853.935704  22676.069449 -18947.655416   2752.228517
PE12 -13007.750107  26545.454000  -1444.226950   -663.043791
PE13  -1249.270376 -23079.741989  18487.725849    -19.456304
PE14  23737.962327  10542.369636 -19281.957262    315.022014
PE15  13211.260435 -26466.462315   1035.489212    -46.141760
PE18 -16570.253115   -774.765869  17227.278462    428.602343
PE19 -18119.091628   1471.374121 -23355.700748  -1822.449987
PE21 -26943.498377  -6349.377235 -10475.906330   -547.422940
PE24   9355.451761  15788.896281  23213.360288   -273.000396
PE25  26760.963664   6585.765427  10810.900357     -0.451390
PE26 -15295.627847  -5553.449961  24724.731680    196.591416
PE27 -10122.009850 -15551.334080 -23054.401103   -127.817712
PE30  12997.373425 -15379.236982 -21694.974384   -428.491355
PE31 -12475.049099  15501.322765  21927.859692     -2.978843
PE33 -19764.582057  13743.060733  17230.276031     -1.410874
PE34  19716.797676 -14341.079316 -16784.313281    -62.247274
PE36  14777.145846   6240.816341 -24880.029530   -102.980662
PG01 -14445.407158  21922.409830   2165.349744    168.129073
PG02 -16246.252448  18445.694503  10341.910664   -564.029921
PG03 -14568.419936  12537.229252 -18424.603338   -180.784057
PG04  -5065.589631  17963.377347 -18840.669752    129.557039
PG05  25448.370555  -5329.218687   5507.805116   -139.309092
PG06  10927.454822   9986.570032 -21984.603763    564.436402
PG07  -2741.292960  23230.558138  12580.754607     92.116562
PG08 -13062.582782   7873.121895  21672.146393   -137.825995
PG09   3749.343240  22984.649005 -12806.533564    -83.249677
PG10 -17270.736985 -11237.426815  17117.358840    -49.807423
PG11  18089.208992  -4168.767140 -18965.574584   -326.884274
PG12  18639.554730 -10183.873714 -16172.219508   -414.439150
PG13  16188.194477   1697.500942  20842.291166    561.720220
PG14  13823.681706  13430.289563  18366.329908    158.035048
PG15  11670.031776 -10332.327079  21027.283816     68.884832
PG16 -26732.676263  -1008.728679   1423.005393   -466.507617
PG17  13410.696653  22694.522872  -2269.997174    722.895070
PG18   1752.853882 -22241.738165  14277.155744   -387.083566
PG19  16407.800781  18324.550724 -10650.476009    359.434071
PG20  25842.347367   -722.947877  -5600.981889    416.537726
PG21 -16833.774947  15905.636855  12665.262091    150.510597
PG22  19758.816137  11269.960523  13944.526929    139.195625
PG23  -4045.350528 -14636.337334  21809.333721     56.723627
PG24  14899.477620 -20372.299259   7172.438758   -293.647637
PG25   4316.950803 -15414.002929 -21475.411089    462.897345
PG26 -24454.094243  -5107.628663  -9634.879986    232.416873
PG27 -18122.978496  -5202.510993  18616.973146    -24.313246
PG28 -10523.939159 -11973.849903 -21266.057453     74.940296
PG29  -1536.003601 -23031.735632 -13095.769361   -608.000023
PG30   5389.492125  18227.033230  18571.134878   -495.384132
PG31 -16601.096717  -1080.857574 -20967.817118   -222.048115
PG32 -16803.289367 -19819.331128  -5816.655218   -542.893092
PJ02 -30959.928261  22654.358529  22562.510166     -2.731813
PJ03 -29669.280476  26691.334556  18765.311593     -1.242636
PJ04 -25038.287637  21610.044128 -21109.240267     70.486475
PR01  19447.143134  15931.989297  -4360.163839     63.763243
PR02  20374.403132   7275.734916  13498.727285    -22.515684
PR03   9868.962375  -6074.536163  22758.737091     83.557416
PR04  -5819.792827 -15537.280759  19404.730209    199.210692
PR05 -18335.710604 -16872.440982   5527.213988    117.551396
PR07  -9245.773178   6555.159806 -22820.511403     62.718185
PR08   6049.576928  15611.393121 -19177.340874    -72.172011
PR09 -22747.162528   5313.976929 -10126.363645    137.391934
PR11  -7952.745808  14012.776709  19783.231533   -136.120970
PR12  11545.164535   6309.982981  21881.536047     30.313212
PR13  22149.400424  -3920.469849  12022.586118    -38.290736
PR14  20646.809350 -13236.818659  -7033.980589     25.096490
PR15   6756.683835 -13782.472126 -20349.532304     86.898338
PR16 -11231.684603  -6268.087309 -22005.043480     17.828708
PR17   9021.315076 -18375.407620 -15181.123203      9.966537
PR18   2880.994619 -25361.889094    517.326057     97.424181
PR19  -3559.864288 -20427.897528  14843.385658   -243.977269
PR20 -10385.042887   -537.899206  23296.225168    -98.535971
PR21  -8804.810737  19203.070273  14320.214061    -31.362888
PR22  -3236.766719  25256.282865  -1446.201859    115.226763
PR24  10933.652105   -474.829553 -23026.337942    -20.976834
PR25 -10048.958945  17936.286921  15120.299674     41.994205
EOF
